STARLINK-31859          
1 59848U 24097P   25352.32922871 -.00000905  00000+0 -23380-4 0  9992
2 59848  43.0017   6.9256 0001437 279.5146  80.5543 15.27574093 89553
STARLINK-31895          
1 59849U 24097Q   25352.12309905 -.00003434  00000+0 -11532-3 0  9993
2 59849  43.0049  14.8875 0000688 263.4574  96.6199 15.27587554 89447
STARLINK-31899          
1 59850U 24097R   25352.12695611 -.00001036  00000+0 -28119-4 0  9993
2 59850  43.0026  14.9154 0001409 268.1156  91.9535 15.27580628 89442
STARLINK-31896          
1 59851U 24097S   25352.06542545 -.00008733  00000+0 -30799-3 0  9991
2 59851  43.0030  15.3117 0000540 247.5423 112.5371 15.27604894 89434
STARLINK-31892          
1 59853U 24097U   25352.34496420  .00002706  00000+0  10782-3 0  9996
2 59853  43.0009  13.9695 0001229 282.8961  77.1753 15.27581606 89470
STARLINK-31891          
1 59854U 24097V   25352.34878268 -.00029445  00000+0 -10606-2 0  9996
2 59854  42.9993  13.9985 0001535 224.4185 135.6544 15.27705647 89474
STARLINK-31882          
1 59855U 24097W   25352.32537269 -.00001452  00000+0 -43230-4 0  9997
2 59855  43.0031   6.8868 0001716 274.5092  85.5564 15.27578534 89552
STARLINK-31691          
1 59856U 24097X   25352.49357266 -.00001478  00000+0 -44209-4 0  9998
2 59856  43.0007  12.4999 0000949 276.3370  83.7373 15.27583436 89500
STARLINK-31569          
1 59857U 24097Y   25352.13724012 -.00002093  00000+0 -66536-4 0  9998
2 59857  43.0064  14.9918 0000915 230.5539 129.5232 15.27582612 89445
STARLINK-31654          
1 59858U 24098A   25352.35945187 -.00001983  00000+0 -62538-4 0  9997
2 59858  42.9993   9.8757 0000901 281.7930  78.2820 15.27585228 89480
STARLINK-31442          
1 59859U 24098B   25352.36713680  .00003423  00000+0  13385-3 0  9994
2 59859  42.9981  21.1599 0001048 265.9151  94.1580 15.27580931 89364
STARLINK-31651          
1 59860U 24098C   25352.13549236 -.00000824  00000+0 -20437-4 0  9996
2 59860  43.0023  18.5611 0000967 260.7675  99.3068 15.27577705 89377
STARLINK-31584          
1 59862U 24098E   25352.38675517 -.00001022  00000+0 -27612-4 0  9990
2 59862  43.0040  17.0071 0001200 272.1497  87.9217 15.27576087 89418
STARLINK-31950          
1 59863U 24098F   25352.07781417  .00001613  00000+0  68156-4 0  9996
2 59863  43.0025  18.9866 0000844 194.7477 165.3350 15.27569323 89362
STARLINK-31931          
1 59864U 24098G   25352.09581030 -.00001818  00000+0 -56605-4 0  9993
2 59864  42.9954  19.1188 0000176  14.0279 346.0578 15.27572318 89362
STARLINK-31938          
1 59865U 24098H   25352.37647214 -.00001985  00000+0 -62609-4 0  9998
2 59865  43.0003  16.9254 0001184 260.0827  99.9891 15.27584067 89413
STARLINK-31941          
1 59866U 24098J   25352.32629710 -.00001526  00000+0 -45942-4 0  9997
2 59866  43.0031 359.7474 0000778 274.5161  85.5602 15.27581541 89602
STARLINK-31952          
1 59867U 24098K   25352.47398955 -.00000574  00000+0 -11321-4 0  9994
2 59867  43.0035  16.8002 0001367 284.0670  76.0030 15.27576477 89423
STARLINK-31921          
1 59868U 24098L   25352.36350077 -.00001035  00000+0 -28114-4 0  9997
2 59868  43.0030 336.9252 0001002 230.6836 129.3927 15.27579295 89865
STARLINK-31760          
1 59869U 24098M   25352.35344944  .00014963  00000+0  55092-3 0  9999
2 59869  43.0006  17.6135 0001476 280.8274  79.2411 15.27653725 89402
STARLINK-31945          
1 59870U 24098N   25352.09097893  .00000445  00000+0  25688-4 0  9999
2 59870  43.0005  14.7566 0002261 284.7124  75.3477 15.27597059 89416
STARLINK-31937          
1 59871U 24098P   25352.33004602 -.00000310  00000+0 -17396-5 0  9994
2 59871  43.0041  10.5173 0001770 271.0588  89.0061 15.27583477 89489
STARLINK-31940          
1 59873U 24098R   25352.47609065 -.00004449  00000+0 -15224-3 0  9998
2 59873  43.0032   9.0325 0001697 276.0798  83.9861 15.27574997 89511
STARLINK-31933          
1 59874U 24098S   25352.13163795 -.00002683  00000+0 -88015-4 0  9994
2 59874  43.0019  18.5305 0000644 295.4025  64.6760 15.27578329 89370
STARLINK-31936          
1 59875U 24098T   25352.98196321  .00001385  00000+0  59845-4 0  9994
2 59875  43.0042 341.4530 0000957 270.2303  89.8439 15.27578993 89865
STARLINK-31935          
1 59876U 24098U   25352.48041151  .00000522  00000+0  28481-4 0  9994
2 59876  43.0022  16.8471 0001237 275.8241  84.2469 15.27579777 89420
STARLINK-31934          
1 59877U 24098V   25352.44362875 -.00001317  00000+0 -38362-4 0  9994
2 59877  43.0025  13.1057 0001101 281.5247  78.5481 15.27579415 89467
STARLINK-31943          
1 59878U 24098W   25352.44152156 -.00002117  00000+0 -67422-4 0  9992
2 59878  42.9998  20.8779 0001171 270.4322  89.6395 15.27581619 88723
STARLINK-31926          
1 59879U 24098X   25352.35488079 -.00002168  00000+0 -69317-4 0  9990
2 59879  42.9992   6.8245 0000539 268.1235  91.9555 15.27574074 89524
STARLINK-31919          
1 59880U 24098Y   25352.13934404 -.00004649  00000+0 -15955-3 0  9990
2 59880  43.0040  18.5886 0001333 282.0159  78.0543 15.27570357 89372
STARLINK-31974          
1 59885U 24100A   25351.93531416 -.00000757  00000+0 -17992-4 0  9992
2 59885  42.9995 227.1035 0001028 269.5112  90.5622 15.27579182 88559
STARLINK-31975          
1 59886U 24100B   25352.65713076  .00000623  00000+0  32162-4 0  9993
2 59886  43.0000 223.0574 0001098 268.4789  91.5937 15.27575410 88760
STARLINK-31976          
1 59887U 24100C   25352.69262598 -.00000832  00000+0 -20719-4 0  9995
2 59887  42.9994 226.7583 0000734 284.1996  75.8775 15.27582544 88729
STARLINK-31965          
1 59888U 24100D   25352.93022798  .00026161  00000+0  95554-3 0  9998
2 59888  42.9977 221.6649 0001246 266.9053  93.1656 15.27624165 88704
STARLINK-31969          
1 59889U 24100E   25352.65247971 -.00000717  00000+0 -16545-4 0  9995
2 59889  43.0002 219.5641 0001199 264.9307  95.1408 15.27577975 88805
STARLINK-31951          
1 59890U 24100F   25352.70453054 -.00000378  00000+0 -42090-5 0  9992
2 59890  43.0030 222.5558 0001226 269.5156  90.5555 15.27576548 88675
STARLINK-31949          
1 59891U 24100G   25352.65070486 -.00002854  00000+0 -94165-4 0  9991
2 59891  43.0008 223.0044 0001772 263.4392  96.6258 15.27593153 88665
STARLINK-31977          
1 59892U 24100H   25352.69650475 -.00000323  00000+0 -21995-5 0  9999
2 59892  43.0012 215.5711 0001490 263.9549  96.1132 15.27582292 88853
STARLINK-31963          
1 59893U 24100J   25352.66484062 -.00000164  00000+0  35549-5 0  9996
2 59893  42.9992 223.1120 0001117 273.7769  86.2955 15.27578948 88763
STARLINK-31961          
1 59894U 24100K   25352.64910626 -.00000525  00000+0 -95646-5 0  9991
2 59894  43.0001 216.0715 0000957 264.7427  95.3315 15.27578539 88846
STARLINK-31964          
1 59895U 24100L   25352.69424386 -.00000139  00000+0  44710-5 0  9996
2 59895  43.0022 222.4761 0000964 250.1259 109.9489 15.27583222 88728
STARLINK-31905          
1 59896U 24100M   25352.66275909 -.00001352  00000+0 -39603-4 0  9992
2 59896  43.0015 219.6391 0000900 267.5329  92.5420 15.27579925 88804
STARLINK-31928          
1 59897U 24100N   25352.34947655 -.00001899  00000+0 -59483-4 0  9996
2 59897  43.0009 225.0491 0001054 279.9432  80.1301 15.27586110 88617
STARLINK-31953          
1 59898U 24100P   25352.65890105 -.00000462  00000+0 -72668-5 0  9994
2 59898  42.9999 219.6087 0001100 272.0593  88.0133 15.27580318 88803
STARLINK-31942          
1 59899U 24100Q   25352.38144364  .00002338  00000+0  94434-4 0  9990
2 59899  43.0013 224.4314 0001051 284.4545  75.6190 15.27589439 88717
STARLINK-31676          
1 59900U 24100R   25352.66098797 -.00000107  00000+0  56438-5 0  9998
2 59900  43.0009 223.0826 0001277 264.4246  95.6460 15.27579020 88654
STARLINK-31908          
1 59901U 24100S   25352.31831716 -.00000408  00000+0 -53182-5 0  9995
2 59901  42.9993 217.8887 0001299 261.6919  98.3785 15.27579140 88780
STARLINK-31914          
1 59902U 24100T   25352.08407651 -.00001597  00000+0 -48525-4 0  9991
2 59902  42.9993 226.4916 0001100 269.0533  91.0193 15.27575022 88569
STARLINK-31850          
1 59903U 24100U   25352.37245194 -.00001328  00000+0 -38749-4 0  9995
2 59903  43.0022 224.3496 0001386 264.6556  95.4138 15.27581616 88661
STARLINK-31924          
1 59904U 24100V   25352.64685254  .00001319  00000+0  57478-4 0  9999
2 59904  43.0016 222.9805 0001387 266.0323  94.0370 15.27571025 88758
STARLINK-31898          
1 59905U 24100W   25352.65633067 -.00000387  00000+0 -45412-5 0  9998
2 59905  43.0005 219.5897 0001254 271.4820  88.5888 15.27578530 88799
STARLINK-31861          
1 59906U 24100X   25351.98624488 -.00001439  00000+0 -42777-4 0  9990
2 59906  42.9993 219.6677 0001138 272.9312  87.1410 15.27577475 88731
STARLINK-31920          
1 59907U 24100Y   25352.59458323  .00001169  00000+0  52004-4 0  9994
2 59907  43.0015 190.9368 0001298 273.8412  86.2292 15.27579242 89110
STARLINK-31872          
1 59922U 24106A   25352.57619492  .00006490  00000+0  24510-3 0  9993
2 59922  42.9987  70.9463 0001307 285.2604  74.8103 15.27589878 88150
STARLINK-31972          
1 59923U 24106B   25352.55819246  .00000866  00000+0  40981-4 0  9993
2 59923  43.0036  70.8119 0001377 271.3072  88.7621 15.27596509 88166
STARLINK-31958          
1 59924U 24106C   25352.56514096 -.00000333  00000+0 -25721-5 0  9997
2 59924  43.0009  56.1552 0000705  20.1989 339.8890 15.27571655 88282
STARLINK-31959          
1 59925U 24106D   25352.26629213 -.00000904  00000+0 -23320-4 0  9999
2 59925  43.0017  68.5202 0000905 283.5117  76.5633 15.27582246 88111
STARLINK-31957          
1 59926U 24106E   25352.52223156  .00007268  00000+0  27365-3 0  9995
2 59926  42.9995  70.5459 0001130 320.9339  39.1431 15.27548230 88166
STARLINK-31968          
1 59927U 24106F   25352.26838545  .00001315  00000+0  57296-4 0  9995
2 59927  42.9988  72.0800 0000923 275.8890  84.1856 15.27583053 88124
